[{"OBJECT_NAME":"STARLINK-36285","OBJECT_ID":"2026-068Y","EPOCH":"2026-04-28T20:00:01.000224","MEAN_MOTION":15.67702738,"ECCENTRICITY":0.0001021,"INCLINATION":53.1597,"RA_OF_ASC_NODE":257.986,"ARG_OF_PERICENTER":63.6824,"MEAN_ANOMALY":141.1334,"EPHEMERIS_TYPE":0,"CLASSIFICATION_TYPE":"U","NORAD_CAT_ID":68530,"ELEMENT_SET_NO":999,"REV_AT_EPOCH":582,"BSTAR":-0.01917,"MEAN_MOTION_DOT":-0.01897235,"MEAN_MOTION_DDOT":0},{"OBJECT_NAME":"STARLINK-36294","OBJECT_ID":"2026-068Z","EPOCH":"2026-04-28T20:00:01.000224","MEAN_MOTION":15.6648923,"ECCENTRICITY":9.95e-5,"INCLINATION":53.1595,"RA_OF_ASC_NODE":258.0064,"ARG_OF_PERICENTER":61.9894,"MEAN_ANOMALY":132.7653,"EPHEMERIS_TYPE":0,"CLASSIFICATION_TYPE":"U","NORAD_CAT_ID":68531,"ELEMENT_SET_NO":999,"REV_AT_EPOCH":582,"BSTAR":-0.020113,"MEAN_MOTION_DOT":-0.01894352,"MEAN_MOTION_DDOT":0},{"OBJECT_NAME":"STARLINK-36249","OBJECT_ID":"2026-068AA","EPOCH":"2026-04-28T20:00:01.000224","MEAN_MOTION":15.55862649,"ECCENTRICITY":8.57e-5,"INCLINATION":53.1593,"RA_OF_ASC_NODE":258.2317,"ARG_OF_PERICENTER":68.485,"MEAN_ANOMALY":15.0544,"EPHEMERIS_TYPE":0,"CLASSIFICATION_TYPE":"U","NORAD_CAT_ID":68532,"ELEMENT_SET_NO":999,"REV_AT_EPOCH":582,"BSTAR":-0.036919,"MEAN_MOTION_DOT":-0.02288711,"MEAN_MOTION_DDOT":0},{"OBJECT_NAME":"STARLINK-36252","OBJECT_ID":"2026-068AB","EPOCH":"2026-04-28T20:00:01.000224","MEAN_MOTION":15.6591531,"ECCENTRICITY":0.0001011,"INCLINATION":53.1595,"RA_OF_ASC_NODE":257.9752,"ARG_OF_PERICENTER":64.8381,"MEAN_ANOMALY":144.9928,"EPHEMERIS_TYPE":0,"CLASSIFICATION_TYPE":"U","NORAD_CAT_ID":68533,"ELEMENT_SET_NO":999,"REV_AT_EPOCH":582,"BSTAR":-0.025104,"MEAN_MOTION_DOT":-0.02300267,"MEAN_MOTION_DDOT":0},{"OBJECT_NAME":"STARLINK-36299","OBJECT_ID":"2026-068AC","EPOCH":"2026-04-28T20:00:01.000224","MEAN_MOTION":15.60686339,"ECCENTRICITY":0.0001162,"INCLINATION":53.1595,"RA_OF_ASC_NODE":258.0755,"ARG_OF_PERICENTER":53.8379,"MEAN_ANOMALY":106.4755,"EPHEMERIS_TYPE":0,"CLASSIFICATION_TYPE":"U","NORAD_CAT_ID":68534,"ELEMENT_SET_NO":999,"REV_AT_EPOCH":582,"BSTAR":-0.031329,"MEAN_MOTION_DOT":-0.02328746,"MEAN_MOTION_DDOT":0},{"OBJECT_NAME":"STARLINK-37234","OBJECT_ID":"2026-068AD","EPOCH":"2026-04-28T20:00:01.000224","MEAN_MOTION":15.57942267,"ECCENTRICITY":0.0001032,"INCLINATION":53.1594,"RA_OF_ASC_NODE":258.1456,"ARG_OF_PERICENTER":56.5982,"MEAN_ANOMALY":68.8881,"EPHEMERIS_TYPE":0,"CLASSIFICATION_TYPE":"U","NORAD_CAT_ID":68535,"ELEMENT_SET_NO":999,"REV_AT_EPOCH":587,"BSTAR":-0.033366,"MEAN_MOTION_DOT":-0.02243307,"MEAN_MOTION_DDOT":0},{"OBJECT_NAME":"STARLINK-37173","OBJECT_ID":"2026-068AE","EPOCH":"2026-04-28T20:00:01.000224","MEAN_MOTION":15.53627278,"ECCENTRICITY":5.79e-5,"INCLINATION":53.1596,"RA_OF_ASC_NODE":258.3,"ARG_OF_PERICENTER":69.4918,"MEAN_ANOMALY":340.1053,"EPHEMERIS_TYPE":0,"CLASSIFICATION_TYPE":"U","NORAD_CAT_ID":68536,"ELEMENT_SET_NO":999,"REV_AT_EPOCH":587,"BSTAR":-0.040097,"MEAN_MOTION_DOT":-0.02287929,"MEAN_MOTION_DDOT":0},{"OBJECT_NAME":"SWC-1","OBJECT_ID":"2026-069C","EPOCH":"2026-04-17T12:14:33.921312","MEAN_MOTION":1.01840683,"ECCENTRICITY":0.8357664,"INCLINATION":28.3533,"RA_OF_ASC_NODE":357.7706,"ARG_OF_PERICENTER":80.9928,"MEAN_ANOMALY":279.0715,"EPHEMERIS_TYPE":0,"CLASSIFICATION_TYPE":"U","NORAD_CAT_ID":68540,"ELEMENT_SET_NO":999,"REV_AT_EPOCH":16,"BSTAR":0,"MEAN_MOTION_DOT":-3.51e-6,"MEAN_MOTION_DDOT":0},{"OBJECT_NAME":"STARLINK-37326","OBJECT_ID":"2026-070A","EPOCH":"2026-04-28T18:21:54.411840","MEAN_MOTION":15.80986977,"ECCENTRICITY":0.0001109,"INCLINATION":53.1567,"RA_OF_ASC_NODE":133.4272,"ARG_OF_PERICENTER":54.9441,"MEAN_ANOMALY":305.1685,"EPHEMERIS_TYPE":0,"CLASSIFICATION_TYPE":"U","NORAD_CAT_ID":68542,"ELEMENT_SET_NO":999,"REV_AT_EPOCH":417,"BSTAR":0.0015351,"MEAN_MOTION_DOT":0.00315264,"MEAN_MOTION_DDOT":0},{"OBJECT_NAME":"STARLINK-36308","OBJECT_ID":"2026-070B","EPOCH":"2026-04-28T12:16:40.677024","MEAN_MOTION":15.8098115,"ECCENTRICITY":0.0001143,"INCLINATION":53.1567,"RA_OF_ASC_NODE":134.6892,"ARG_OF_PERICENTER":91.1633,"MEAN_ANOMALY":268.9521,"EPHEMERIS_TYPE":0,"CLASSIFICATION_TYPE":"U","NORAD_CAT_ID":68543,"ELEMENT_SET_NO":999,"REV_AT_EPOCH":413,"BSTAR":0.0012124,"MEAN_MOTION_DOT":0.00246775,"MEAN_MOTION_DDOT":0},{"OBJECT_NAME":"STARLINK-37263","OBJECT_ID":"2026-070C","EPOCH":"2026-04-28T18:18:40.557024","MEAN_MOTION":15.81010659,"ECCENTRICITY":0.0002977,"INCLINATION":53.1564,"RA_OF_ASC_NODE":133.4114,"ARG_OF_PERICENTER":82.1788,"MEAN_ANOMALY":277.9573,"EPHEMERIS_TYPE":0,"CLASSIFICATION_TYPE":"U","NORAD_CAT_ID":68544,"ELEMENT_SET_NO":999,"REV_AT_EPOCH":417,"BSTAR":0.0020448,"MEAN_MOTION_DOT":0.0042614,"MEAN_MOTION_DDOT":0},{"OBJECT_NAME":"STARLINK-37289","OBJECT_ID":"2026-070D","EPOCH":"2026-04-28T20:00:01.000224","MEAN_MOTION":15.77826417,"ECCENTRICITY":6.35e-5,"INCLINATION":53.1584,"RA_OF_ASC_NODE":133.0746,"ARG_OF_PERICENTER":91.7086,"MEAN_ANOMALY":300.9546,"EPHEMERIS_TYPE":0,"CLASSIFICATION_TYPE":"U","NORAD_CAT_ID":68545,"ELEMENT_SET_NO":999,"REV_AT_EPOCH":544,"BSTAR":-0.012719,"MEAN_MOTION_DOT":-0.01903955,"MEAN_MOTION_DDOT":0},{"OBJECT_NAME":"STARLINK-37290","OBJECT_ID":"2026-070E","EPOCH":"2026-04-28T18:17:34.939680","MEAN_MOTION":15.80952039,"ECCENTRICITY":0.0001241,"INCLINATION":53.1565,"RA_OF_ASC_NODE":133.4061,"ARG_OF_PERICENTER":96.2608,"MEAN_ANOMALY":263.8556,"EPHEMERIS_TYPE":0,"CLASSIFICATION_TYPE":"U","NORAD_CAT_ID":68546,"ELEMENT_SET_NO":999,"REV_AT_EPOCH":417,"BSTAR":0.0012088,"MEAN_MOTION_DOT":0.00245689,"MEAN_MOTION_DDOT":0},{"OBJECT_NAME":"STARLINK-37245","OBJECT_ID":"2026-070F","EPOCH":"2026-04-28T07:38:10.523904","MEAN_MOTION":15.81214418,"ECCENTRICITY":0.0002917,"INCLINATION":53.1572,"RA_OF_ASC_NODE":135.6138,"ARG_OF_PERICENTER":110.123,"MEAN_ANOMALY":250.0107,"EPHEMERIS_TYPE":0,"CLASSIFICATION_TYPE":"U","NORAD_CAT_ID":68547,"ELEMENT_SET_NO":999,"REV_AT_EPOCH":410,"BSTAR":0.0025295,"MEAN_MOTION_DOT":0.00539381,"MEAN_MOTION_DDOT":0},{"OBJECT_NAME":"STARLINK-37145","OBJECT_ID":"2026-070G","EPOCH":"2026-04-28T13:42:18.721728","MEAN_MOTION":15.80938083,"ECCENTRICITY":0.0001168,"INCLINATION":53.157,"RA_OF_ASC_NODE":134.347,"ARG_OF_PERICENTER":43.1165,"MEAN_ANOMALY":316.9949,"EPHEMERIS_TYPE":0,"CLASSIFICATION_TYPE":"U","NORAD_CAT_ID":68548,"ELEMENT_SET_NO":999,"REV_AT_EPOCH":414,"BSTAR":0.0006813,"MEAN_MOTION_DOT":0.00136318,"MEAN_MOTION_DDOT":0},{"OBJECT_NAME":"STARLINK-36204","OBJECT_ID":"2026-070H","EPOCH":"2026-04-28T12:10:11.903808","MEAN_MOTION":15.80953022,"ECCENTRICITY":0.0001448,"INCLINATION":53.1568,"RA_OF_ASC_NODE":134.6581,"ARG_OF_PERICENTER":90.0788,"MEAN_ANOMALY":270.04,"EPHEMERIS_TYPE":0,"CLASSIFICATION_TYPE":"U","NORAD_CAT_ID":68549,"ELEMENT_SET_NO":999,"REV_AT_EPOCH":413,"BSTAR":0.0010409,"MEAN_MOTION_DOT":0.00210609,"MEAN_MOTION_DDOT":0},{"OBJECT_NAME":"STARLINK-36304","OBJECT_ID":"2026-070J","EPOCH":"2026-04-28T18:12:11.066688","MEAN_MOTION":15.80976121,"ECCENTRICITY":0.0001361,"INCLINATION":53.1571,"RA_OF_ASC_NODE":133.3811,"ARG_OF_PERICENTER":85.3454,"MEAN_ANOMALY":274.7724,"EPHEMERIS_TYPE":0,"CLASSIFICATION_TYPE":"U","NORAD_CAT_ID":68550,"ELEMENT_SET_NO":999,"REV_AT_EPOCH":417,"BSTAR":0.0014871,"MEAN_MOTION_DOT":0.00304857,"MEAN_MOTION_DDOT":0}]
