STARLINK-36285          
1 68530U 26068Y   26118.83334491 -.01897235  00000+0 -19170-1 0  9992
2 68530  53.1597 257.9860 0001021  63.6824 141.1334 15.67702738  5822
STARLINK-36294          
1 68531U 26068Z   26118.83334491 -.01894352  00000+0 -20113-1 0  9999
2 68531  53.1595 258.0064 0000995  61.9894 132.7653 15.66489230  5824
STARLINK-36249          
1 68532U 26068AA  26118.83334491 -.02288711  00000+0 -36919-1 0  9998
2 68532  53.1593 258.2317 0000857  68.4850  15.0544 15.55862649  5826
STARLINK-36252          
1 68533U 26068AB  26118.83334491 -.02300267  00000+0 -25104-1 0  9994
2 68533  53.1595 257.9752 0001011  64.8381 144.9928 15.65915310  5823
STARLINK-36299          
1 68534U 26068AC  26118.83334491 -.02328746  00000+0 -31329-1 0  9993
2 68534  53.1595 258.0755 0001162  53.8379 106.4755 15.60686339  5823
STARLINK-37234          
1 68535U 26068AD  26118.83334491 -.02243307  00000+0 -33366-1 0  9996
2 68535  53.1594 258.1456 0001032  56.5982  68.8881 15.57942267  5875
STARLINK-37173          
1 68536U 26068AE  26118.83334491 -.02287929  00000+0 -40097-1 0  9994
2 68536  53.1596 258.3000 0000579  69.4918 340.1053 15.53627278  5877
SWC-1                   
1 68540U 26069C   26107.51011483 -.00000351  00000+0  00000+0 0  9993
2 68540  28.3533 357.7706 8357664  80.9928 279.0715  1.01840683   168
STARLINK-37326          
1 68542U 26070A   26118.76521310  .00315264  00000+0  15351-2 0  9990
2 68542  53.1567 133.4272 0001109  54.9441 305.1685 15.80986977  4174
STARLINK-36308          
1 68543U 26070B   26118.51158191  .00246775  00000+0  12124-2 0  9992
2 68543  53.1567 134.6892 0001143  91.1633 268.9521 15.80981150  4139
STARLINK-37263          
1 68544U 26070C   26118.76296941  .00426140  00000+0  20448-2 0  9990
2 68544  53.1564 133.4114 0002977  82.1788 277.9573 15.81010659  4177
STARLINK-37289          
1 68545U 26070D   26118.83334491 -.01903955  00000+0 -12719-1 0  9990
2 68545  53.1584 133.0746 0000635  91.7086 300.9546 15.77826417  5443
STARLINK-37290          
1 68546U 26070E   26118.76220995  .00245689  00000+0  12088-2 0  9996
2 68546  53.1565 133.4061 0001241  96.2608 263.8556 15.80952039  4172
STARLINK-37245          
1 68547U 26070F   26118.31817736  .00539381  00000+0  25295-2 0  9992
2 68547  53.1572 135.6138 0002917 110.1230 250.0107 15.81214418  4104
STARLINK-37145          
1 68548U 26070G   26118.57105002  .00136318  00000+0  68130-3 0  9996
2 68548  53.1570 134.3470 0001168  43.1165 316.9949 15.80938083  4147
STARLINK-36204          
1 68549U 26070H   26118.50708222  .00210609  00000+0  10409-2 0  9994
2 68549  53.1568 134.6581 0001448  90.0788 270.0400 15.80953022  4135
STARLINK-36304          
1 68550U 26070J   26118.75846142  .00304857  00000+0  14871-2 0  9993
2 68550  53.1571 133.3811 0001361  85.3454 274.7724 15.80976121  4173
